#cP2019  6 27  0  0  0.00000000      96 ORBIT IGS14 HLM  IGS
## 2059 345600.00000000   900.00000000 58661 0.0000000000000
+   32   G01G02G03G04G05G06G07G08G09G10G11G12G13G14G15G16G17
+        G18G19G20G21G22G23G24G25G26G27G28G29G30G31G32  0  0
+          0  0  0  0  0  0  0  0  0  0  0  0  0  0  0  0  0
+          0  0  0  0  0  0  0  0  0  0  0  0  0  0  0  0  0
+          0  0  0  0  0  0  0  0  0  0  0  0  0  0  0  0  0
++         2  2  2  0  2  2  2  2  2  2  2  2  2  2  2  2  2
++         3  2  2  2  2  2  2  2  2  2  2  2  2  2  2  0  0
++         0  0  0  0  0  0  0  0  0  0  0  0  0  0  0  0  0
++         0  0  0  0  0  0  0  0  0  0  0  0  0  0  0  0  0
++         0  0  0  0  0  0  0  0  0  0  0  0  0  0  0  0  0
%c G  cc GPS ccc cccc cccc cccc cccc ccccc ccccc ccccc ccccc
%c cc cc ccc ccc cccc cccc cccc cccc ccccc ccccc ccccc ccccc
%f  1.2500000  1.025000000  0.00000000000  0.000000000000000
%f  0.0000000  0.000000000  0.00000000000  0.000000000000000
%i    0    0    0    0      0      0      0      0         0
%i    0    0    0    0      0      0      0      0         0
/* RAPID ORBIT COMBINATION FROM WEIGHTED AVERAGE OF:        
/* cod emr esa gfz jpl ngs sio usn whu                      
/* REFERENCED TO IGS TIME (IGST) AND TO WEIGHTED MEAN POLE: 
/* PCV:IGS14_2056 OL/AL:FES2004  NONE     Y  ORB:CMB CLK:CMB
*  2019  6 27 21  0  0.00000000
PG01  20935.107087  14240.848600  -8744.262968    -52.270579  7  9  5  86       
PG02   -966.842886 -16251.234624  21617.469098   -247.343010  9  7  7 109       
PG03  12830.255491  18830.170973  13681.535305    183.877264  4  5  4  78       
PG04  22948.180208  -9210.121916   9706.793466 999999.999999
PG05  -1805.026626 -25971.278727   4548.157172      0.349968  7  8  3 107       
PG06  14215.273856  -9461.894440  20392.520874    165.766330  5  6  4  85       
PG07  25575.574194   6243.758362  -4848.629631    -53.094352  8 10  5  79       
PG08   5209.053770  14798.451056 -21372.842961   -149.052893  6  8  5  81       
PG09  21285.070289  -3724.874921  15411.829648    382.777854  6  5  3  93       
PG10 -12388.085672  11511.527285 -20365.915431      2.402483  6  5  4 108       
PG11  18051.001129  11130.951608 -16368.538085   -574.564440  3  9  6 104       
PG12 -10192.226300 -21370.397839  11986.570114    229.161749 10  7  6 114       
PG13   5342.118582 -18462.298727 -18417.955270    -57.129809  7  6  4  99       
PG14 -17370.192087  18630.871334   7503.354269    -74.105100  6  5  5 104       
PG15  -7954.313807 -14393.428859 -21074.923959   -304.401877  6  7  5 104       
PG16   -681.664046  25949.651740   4194.318833    -51.569511  3  5  4  75       
PG17  21475.426358 -15522.783846   -462.256780     79.034204  6  6  6  76       
PG18  13769.169786  16423.727589 -16267.486757 999999.999999
PG19  19234.098105 -17397.467609   5572.683225   -301.206417  4  4  7 111       
PG20 -16003.558890   1664.125182 -21246.910444    525.656425  6  7  3 111       
PG21 -24710.985663  -1066.121364  -8658.266240   -165.085954  5  5  5 127       
PG22  11129.395194  23193.743992   7016.553706   -723.288713  7  6  5  87       
PG23  14144.436196   8234.551137  21313.860039   -179.815987  5  7  3 104       
PG24 -19199.408202 -14776.272733 -11416.676826    -68.029539  7  8  6 124       
PG25 -15180.455852  -9122.549493  19659.438059   -769.184323  6  7  6 106       
PG26  -5877.707781  21709.324189  13967.197275    237.594358  7  6  1 104       
PG27  -7051.426352  19902.715913 -16034.134370   -169.459042  4  5  2  69       
PG28  12665.106365 -10745.754883 -20148.938507    767.098831  5  6  2  81       
PG29 -19403.628674   -762.208589  18090.760294    165.637487  7  8  7 116       
PG30  22250.562324  -2095.931308 -14474.447074   -132.187993  6  7  4 101       
PG31 -13281.058950  10250.082242  20685.715838     28.155746  5  6  6 102       
PG32 -20465.886841  16816.744787   -419.311537    -25.665123  3  6  4 105       
*  2019  6 27 21 15  0.00000000
PG01  19832.032300  14035.181511 -11299.059318    -52.279536  7  8  5 119       
PG02   1329.948416 -15670.844516  22021.537386   -247.350869  9  7  6 119       
PG03  12920.662953  20275.679053  11345.881552    183.875783  4  6  5 110       
PG04  22129.591946  -8238.936834  12171.328986 999999.999999
PG05  -1363.120734 -25358.937733   7284.539233      0.349774  7  8  2 110       
PG06  16320.806581  -8667.498053  19130.583137    165.756599  5  7  4  98       
PG07  25894.964748   6602.224630  -2067.566128    -53.101230  8 10  4 108       
PG08   3379.885774  16364.675651 -20566.648571   -149.053865  6  8  5 103       
PG09  20020.079755  -2324.680773  17264.712742    382.770676  6  5  3  80       
PG10 -12951.285857   9182.481128 -21197.365496      2.391336  6  5  5 113       
PG11  16193.959257  11597.915186 -17984.674177   -574.556389  4  9  6 111       
PG12 -10197.132706 -22629.743338   9464.342378    229.158248 10  6  7 107       
PG13   7063.511952 -19471.640385 -16704.792397    -57.128024  7  6  4  96       
PG14 -18057.526150  18827.553422   4754.080963    -74.103725  6  5  5 109       
PG15  -6288.463744 -16035.741621 -20398.355704   -304.399448  6  6  5  99       
PG16   -977.208082  25309.011270   7022.293475    -51.572542  2  5  4 101       
PG17  21391.422574 -15204.674513  -3358.052196     79.040131  6  6  6 100       
PG18  11924.128650  16062.686221 -18032.335408     65.447094  8  9 12 139       
PG19  19757.366636 -17539.812415   2730.988528   -301.201903  4  5  7 116       
PG20 -16713.114918   -619.843319 -20762.934402    525.656855  6  6  3 109       
PG21 -25539.699756  -1598.657719  -5988.544297   -165.079513  6  5  6 123       
PG22  10984.371677  23884.059643   4334.045555   -723.293572  8  6  6 110       
PG23  12400.506868   9869.646958  21672.352166   -179.814333  4  7  3 109       
PG24 -17781.115963 -14624.343113 -13683.110386    -68.029256  7  7  6 128       
PG25 -15509.936126 -11300.508401  18257.568959   -769.187002  7  7  7 114       
PG26  -6475.329944  20074.685603  16012.137496    237.602770  6  6  2 102       
PG27  -8433.660011  20910.789175 -13902.960125   -169.468482  4  4  3 108       
PG28  13003.512622  -8292.592305 -21037.646781    767.098434  5  6  2 101       
PG29 -17757.065121  -2159.602781  19601.736171    165.629256  7  9  7  98       
PG30  23599.140070  -1332.582309 -12283.361395   -132.194636  7  8  4 108       
PG31 -15410.812321   9387.251774  19629.662343     28.153466  6  5  5  92       
PG32 -20488.593816  16464.632647  -3263.061547    -25.650971  4  6  4 110       
*  2019  6 27 21 30  0.00000000
PG01  18453.592762  13817.428430 -13664.450321    -52.288438  8  8  5 125       
PG02   3679.358359 -15207.945142  22067.279512   -247.358756  9  6  6 122       
PG03  13016.677462  21447.772116   8815.504162    183.874334  4  6  5 130       
PG04  21167.475470  -7044.283088  14426.525073 999999.999999
PG05   -805.036455 -24477.428287   9893.532811      0.349688  8  7  2 122       
PG06  18310.624932  -8030.861269  17540.861062    165.746812  6  7  4 109       
PG07  25931.691829   6854.993767    748.153598    -53.108117  9  9  4 115       
PG08   1713.585308  17947.153073 -19404.128704   -149.055222  5  7  5 102       
PG09  18692.659683   -723.955902  18819.757344    382.763558  6  6  4 114       
PG10 -13653.721835   6816.540645 -21660.915006      2.380180  7  5  4 107       
PG11  14204.597460  12173.868205 -19300.784386   -574.548522  3  8  6 113       
PG12 -10216.476498 -23595.090357   6779.278225    229.154998 10  6  7 104       
PG13   8564.091917 -20442.889232 -14705.772436    -57.126912  7  7  4 113       
PG14 -18495.219237  18853.152608   1922.617523    -74.102037  6  5  4 117       
PG15  -4759.353755 -17684.979718 -19376.188907   -304.397221  6  6  5 108       
PG16  -1363.261549  24372.020817   9725.547657    -51.575105  1  6  3 107       
PG17  21083.172003 -14661.176101  -6195.342714     79.045793  7  6  6 104       
PG18   9889.702638  15760.268690 -19499.547358     65.449779  8 10 12 125       
PG19  20017.994790 -17506.869141   -157.742420   -301.197583  4  5  7 122       
PG20 -17503.113715  -2797.372486 -19925.714319    525.656989  6  7  4 109       
PG21 -26086.690660  -2019.276297  -3212.366102   -165.073027  6  5  6 128       
PG22  10771.338874  24292.913763   1577.657828   -723.298590  8  6  6 120       
PG23  10724.790174  11607.318944  21669.807801   -179.812550  4  7  3 120       
PG24 -16121.771948 -14491.802520 -15719.841041    -68.030092  7  7  6 131       
PG25 -15910.153116 -13282.854968  16538.929376   -769.189650  8  7  8 119       
PG26  -7214.612894  18265.328407  17779.098858    237.611199  6  6  1 105       
PG27  -9580.197346  21811.814010 -11530.614307   -169.477923  4  3  4 105       
PG28  13487.876381  -5778.417891 -21544.289648    767.097872  6  5  3  94       
PG29 -16076.378446  -3747.658354  20774.526216    165.620257  8  9  7 117       
PG30  24736.869164   -715.605587  -9882.709755   -132.201422  8  8  4  96       
PG31 -17447.722659   8678.774669  18239.716005     28.150893  7  5  5  84       
PG32 -20304.535891  15886.636768  -6050.171040    -25.636783  4  6  4 110       
EOF
